{"type":"Topology","bbox":[112.921124,-43.651435,159.10542,-9.229096],"transform":{"scale":[0.0004618475784757848,0.00034422683226832267],"translate":[112.921124,-43.651435]},"objects":{"states":{"type":"GeometryCollection","geometries":[{"type":"MultiPolygon","arcs":[[[0,1,2,3,4,5,6,7,8,9,10,11,12,13,14,15,16,17,18,19,20,21,22,23,24,25,26,27,28,29,30,31,32,33,34,35,36,37,38,39,40,41,42,43,44,45,46,47,48,49,50,51,52,53,54,55,56,57,58,59,60,61,62,63,64,65,66,67,68,69,70,71,72,73,74,75,76,77,78,79,80,81,82,83,84,85,86,87,88,89,90,91,92,93,94,95,96,97,98,99,100,101,102,103,104,105,106,107,108,109,110,111,112,113,114,115,116,117,118,119,120,121,122,123,124,125,126,127,128,129,130,131,132,133,134,135,136,137,138,139,140,141,142,143,144,145,146,147],[148,149,150,151,152,153,154,155,156,157,158,159,160,161,162,163,164,165]]],"id":0,"properties":{"STATE_CODE":"1","STATE_NAME":"New South Wales"}},{"type":"MultiPolygon","arcs":[[[166,167,168,-96,169,170,171,172,173,174,175,-88,176,177,178,179,-83,180,-81,181,182,183,184,185,186,-74,187,188,189,190,-69,191,-67,192,193,194,195,196,197,198,199,200,201,202,203,204,205,-52,206,207,208,-48,209,-46,210,211,212,213,214,215,216,217,218,219,220,221,222,223,224,225,226,227,228,229,230,231,-23,232,233,-20,234,235,236,237,-15,238,-13,239,240,241,242,-8,243,244,245,246,247,248,-1,249]],[[250]],[[251]],[[252]]],"id":1,"properties":{"STATE_CODE":"2","STATE_NAME":"Victoria"}},{"type":"MultiPolygon","arcs":[[[253,254,255,256,-143,257,258,-140,259,260,261,262,263,-134,264,265,266,267,-129,268,-127,269,270,271,-123,272,273,-120,274,-118,275,276,277,278,279,280,281,282,283,284,285,286,287,288,289,290,291,292,-99,293,294,295,296]],[[297]],[[298]],[[299]],[[300]],[[301]],[[302]],[[303]],[[304]],[[305]],[[306]],[[307]],[[308]],[[309]],[[310]],[[311]],[[312]],[[313]],[[314]],[[315]],[[316]]],"id":2,"properties":{"STATE_CODE":"3","STATE_NAME":"Queensland"}},{"type":"MultiPolygon","arcs":[[[317,318,319,320]],[[321]],[[322]],[[323]],[[324]]],"id":3,"properties":{"STATE_CODE":"4","STATE_NAME":"South Australia"}},{"type":"MultiPolygon","arcs":[[[325,326]],[[327]],[[328]],[[329]],[[330]],[[331]],[[332]],[[333]],[[334]],[[335]],[[336]],[[337]]],"id":4,"properties":{"STATE_CODE":"5","STATE_NAME":"Western Australia"}},{"type":"MultiPolygon","arcs":[[[338]],[[339]],[[340]],[[341]],[[342]],[[343]],[[344]],[[345]],[[346]],[[347]],[[348]],[[349]]],"id":5,"properties":{"STATE_CODE":"6","STATE_NAME":"Tasmania"}},{"type":"MultiPolygon","arcs":[[[-296,350,351]],[[352]],[[353]],[[354]],[[355]],[[356]],[[357]],[[358]],[[359]],[[360]],[[361]],[[362]],[[363]],[[364]],[[365]],[[366]],[[367]],[[368]],[[369]],[[370]]],"id":6,"properties":{"STATE_CODE":"7","STATE_NAME":"Northern Territory"}},{"type":"Polygon","arcs":[[-166,371,-164,372,-162,373,374,375,376,377,378,379,380,-153,381,-151,382,383]],"id":7,"properties":{"STATE_CODE":"8","STATE_NAME":"Australian Capital Territory"}}]}},"arcs":[[[80233,17856],[-3858,2059]],[[76375,19915],[-186,-14],[222,437]],[[76411,20338],[13,152]],[[76424,20490],[-182,91]],[[76242,20581],[-19,297]],[[76223,20878],[-188,216]],[[76035,21094],[0,725]],[[76035,21819],[-76,2]],[[75959,21821],[-6,273]],[[75953,22094],[-189,148]],[[75764,22242],[-442,193]],[[75322,22435],[-252,-120]],[[75070,22315],[-93,16]],[[74977,22331],[76,-59]],[[75053,22272],[-70,-56]],[[74983,22216],[-125,176]],[[74858,22392],[-194,0]],[[74664,22392],[-183,-341]],[[74481,22051],[-417,124]],[[74064,22175],[-9,69]],[[74055,22244],[-152,-330]],[[73903,21914],[-208,87]],[[73695,22001],[-29,-110]],[[73666,21891],[-462,207],[3,61]],[[73207,22159],[-99,-49]],[[73108,22110],[-159,197]],[[72949,22307],[-136,-57]],[[72813,22250],[-102,99]],[[72711,22349],[-175,-22]],[[72536,22327],[-115,-247]],[[72421,22080],[-151,9]],[[72270,22089],[-35,107],[-209,-90]],[[72026,22106],[-111,114],[-353,-38]],[[71562,22182],[-39,158]],[[71523,22340],[-111,26]],[[71412,22366],[-197,-114]],[[71215,22252],[-298,191]],[[70917,22443],[-300,360]],[[70617,22803],[-390,-189]],[[70227,22614],[-493,135],[-293,-92]],[[69441,22657],[-149,-396]],[[69292,22261],[127,-243]],[[69419,22018],[-257,38]],[[69162,22056],[-120,-187]],[[69042,21869],[-177,17]],[[68865,21886],[-1,82]],[[68864,21968],[-91,-16]],[[68773,21952],[11,97]],[[68784,22049],[-154,-45]],[[68630,22004],[-5,132]],[[68625,22136],[-215,105]],[[68410,22241],[11,73]],[[68421,22314],[-245,193]],[[68176,22507],[-128,397]],[[68048,22904],[-183,46],[-345,467]],[[67520,23417],[-249,105]],[[67271,23522],[-43,158]],[[67228,23680],[-241,59],[-234,267]],[[66753,24006],[-282,1]],[[66471,24007],[-127,146]],[[66344,24153],[19,379]],[[66363,24532],[-381,42]],[[65982,24574],[-157,452]],[[65825,25026],[56,712]],[[65881,25738],[-155,-2]],[[65726,25736],[-53,57]],[[65673,25793],[48,58]],[[65721,25851],[-108,-17]],[[65613,25834],[-23,59]],[[65590,25893],[-219,167]],[[65371,26060],[-158,-63],[-251,159]],[[64962,26156],[-120,60]],[[64842,26216],[-174,108]],[[64668,26324],[8,127]],[[64676,26451],[-94,-89]],[[64582,26362],[-104,-65],[-2,-364],[-175,-12]],[[64301,25921],[45,-150],[-229,79],[-42,181]],[[64075,26031],[-134,167],[34,201]],[[63975,26399],[-35,-58]],[[63940,26341],[-182,156]],[[63758,26497],[59,107]],[[63817,26604],[-76,-15]],[[63741,26589],[-14,85]],[[63727,26674],[-5,212]],[[63722,26886],[99,171],[-348,89]],[[63473,27146],[-33,363],[-299,25]],[[63141,27534],[-15,122]],[[63126,27656],[-104,25]],[[63022,27681],[-32,51]],[[62990,27732],[-295,-93],[-431,105]],[[62264,27744],[-158,-139]],[[62106,27605],[-3,-123]],[[62103,27482],[-202,-73]],[[61901,27409],[-28,177],[-373,49]],[[61500,27635],[-168,190]],[[61332,27825],[-12,35]],[[61320,27860],[-330,-45]],[[60990,27815],[-187,158],[-8,14593]],[[60795,42566],[17233,0]],[[78028,42566],[161,125]],[[78189,42691],[104,332]],[[78293,43023],[603,457],[61,-33]],[[78957,43447],[251,353]],[[79208,43800],[184,4]],[[79392,43804],[249,-177]],[[79641,43627],[39,72],[478,-26],[456,197]],[[80614,43870],[129,-70]],[[80743,43800],[168,108]],[[80911,43908],[338,-372]],[[81249,43536],[404,-33]],[[81653,43503],[260,125]],[[81913,43628],[402,-283],[157,-29]],[[82472,43316],[75,-301]],[[82547,43015],[125,24]],[[82672,43039],[372,-298]],[[83044,42741],[11,-470]],[[83055,42271],[129,-223]],[[83184,42048],[118,-1]],[[83302,42047],[235,311]],[[83537,42358],[-24,42]],[[83513,42400],[117,300]],[[83630,42700],[349,236]],[[83979,42936],[59,0]],[[84038,42936],[95,-256]],[[84133,42680],[118,0]],[[84251,42680],[37,151]],[[84288,42831],[110,-21]],[[84398,42810],[237,22]],[[84635,42832],[62,124]],[[84697,42956],[-50,41]],[[84647,42997],[132,414]],[[84779,43411],[-143,126]],[[84636,43537],[-118,424]],[[84518,43961],[59,45]],[[84577,44006],[74,-64]],[[84651,43942],[115,167],[318,54]],[[85084,44163],[201,250]],[[85285,44413],[165,-15]],[[85450,44398],[168,317]],[[85618,44715],[135,-136]],[[85753,44579],[115,-95]],[[85868,44484],[77,201]],[[85945,44685],[21,-83]],[[85966,44602],[274,-191]],[[86240,44411],[280,158]],[[86520,44569],[495,-139]],[[87015,44430],[150,319],[397,-2],[250,265]],[[87812,45012],[172,-33],[65,-261],[-71,-793],[140,-322],[-20,-584],[-314,-510],[-33,-333],[-226,-474],[62,-418],[-84,-680],[-218,-887],[-79,-177],[21,-336],[-144,-289],[28,-156],[-263,-550],[-94,-677],[55,-374],[162,-147],[-107,-267],[56,-155],[-190,-334],[-27,-392],[-108,-299],[50,-193],[-200,-282],[9,-199],[-245,-567],[-277,-321],[-216,-655],[134,-125],[-102,-229],[35,-433],[-442,-243],[-303,-351],[-275,-121],[-217,102],[-69,-240],[519,50],[-8,-122],[-804,-358],[6,-89],[-355,-492],[-69,346],[-214,-397],[190,-171],[84,268],[6,-310],[-427,-381],[136,-161],[-189,-467],[-232,-91],[-325,127],[-9,127],[339,-580],[-23,-455],[-210,148],[91,-235],[-219,85],[12,-140],[274,62],[-61,-438],[-176,151],[-66,-254],[74,-143],[-396,-423],[-132,-246],[-72,-390],[-135,-103],[70,-539],[-86,-321],[-163,-211],[76,-382],[141,-77],[-160,-203],[5,234],[-232,-101],[66,-249],[-300,85],[74,-280],[-258,-296],[31,-216],[-177,-204],[-9,-283],[-281,-551],[-215,59],[124,-199],[-183,-347],[-4,-1092],[-177,-382],[4,-452],[-322,-991],[54,-461],[-156,-85],[286,-169],[102,-351],[-233,-45],[70,-660]],[[78983,24206],[-275,132]],[[78708,24338],[-126,157]],[[78582,24495],[-20,-29]],[[78562,24466],[-182,305]],[[78380,24771],[-677,-538]],[[77703,24233],[-98,-540]],[[77605,23693],[61,-604]],[[77666,23089],[140,-166]],[[77806,22923],[67,121]],[[77873,23044],[49,-389]],[[77922,22655],[302,-196]],[[78224,22459],[97,280]],[[78321,22739],[-19,707]],[[78302,23446],[125,-35]],[[78427,23411],[9,517]],[[78436,23928],[132,202]],[[78568,24130],[313,-18]],[[78881,24112],[102,94]],[[60723,16255],[-6,6703],[1,5136]],[[60718,28094],[129,-229],[143,-50]],[[60990,27815],[330,45]],[[61332,27825],[168,-190]],[[61500,27635],[74,81],[268,-153],[59,-154]],[[61901,27409],[202,73]],[[62103,27482],[3,123]],[[62106,27605],[158,139]],[[62264,27744],[537,-97],[189,85]],[[62990,27732],[32,-51]],[[63126,27656],[15,-122]],[[63141,27534],[138,71],[211,-177],[-17,-282]],[[63473,27146],[348,-90],[-99,-170]],[[63722,26886],[5,-212]],[[63741,26589],[76,15]],[[63758,26497],[182,-156]],[[63940,26341],[35,58]],[[63975,26399],[11,-308],[89,-60]],[[64075,26031],[-14,-168],[270,-103],[-30,161]],[[64301,25921],[174,10],[5,369],[102,62]],[[64582,26362],[94,89]],[[64668,26324],[174,-108]],[[64842,26216],[120,-60]],[[64962,26156],[106,-138],[303,42]],[[65371,26060],[219,-167]],[[65613,25834],[108,17]],[[65673,25793],[53,-57]],[[65726,25736],[155,2]],[[65881,25738],[-56,-712]],[[65825,25026],[157,-452]],[[65982,24574],[381,-42]],[[66363,24532],[-19,-379]],[[66344,24153],[127,-146]],[[66471,24007],[282,-1]],[[66753,24006],[26,-102],[369,-243],[80,19]],[[67228,23680],[43,-158]],[[67271,23522],[249,-105]],[[67520,23417],[124,-235],[404,-278]],[[68048,22904],[128,-397]],[[68176,22507],[245,-193]],[[68410,22241],[215,-105]],[[68625,22136],[5,-132]],[[68630,22004],[154,45]],[[68773,21952],[91,16]],[[68865,21886],[177,-17]],[[69042,21869],[120,187]],[[69162,22056],[257,-38]],[[69419,22018],[-127,243]],[[69292,22261],[149,396]],[[69441,22657],[264,92],[522,-135]],[[70227,22614],[390,189]],[[70617,22803],[300,-360]],[[70917,22443],[298,-191]],[[71215,22252],[197,114]],[[71412,22366],[111,-26]],[[71523,22340],[39,-158]],[[71562,22182],[129,61],[335,-137]],[[72026,22106],[244,-17]],[[72270,22089],[151,-9]],[[72421,22080],[115,247]],[[72536,22327],[175,22]],[[72711,22349],[102,-99]],[[72813,22250],[136,57]],[[72949,22307],[159,-197]],[[73108,22110],[99,49]],[[73207,22159],[40,-109],[419,-159]],[[73695,22001],[208,-87]],[[73903,21914],[152,330]],[[74064,22175],[417,-124]],[[74481,22051],[183,341]],[[74664,22392],[194,0]],[[74858,22392],[125,-176]],[[75053,22272],[-76,59]],[[75070,22315],[252,120]],[[75322,22435],[442,-193]],[[75764,22242],[189,-148]],[[75953,22094],[6,-273]],[[76035,21819],[0,-725]],[[76035,21094],[188,-216]],[[76223,20878],[19,-297]],[[76242,20581],[182,-91]],[[76424,20490],[-13,-152]],[[76411,20338],[-245,-397],[209,-26]],[[80233,17856],[-436,-154],[-212,-369],[-416,-263],[-781,-5],[-812,-58],[-47,-53],[-605,40],[-344,-27],[-731,-241],[-354,-178],[-676,-571],[-1192,-1285],[-239,-159],[-503,-144],[-191,54],[-183,-93],[-129,113],[-300,-58],[-57,-147],[189,-182],[43,-286],[402,328],[23,-345],[-112,-321],[-24,-317],[-174,13],[14,194],[-184,196],[-169,342],[-337,175],[-59,-188],[-185,-92],[-223,572],[-225,197],[-233,-98],[-266,357],[-242,57],[135,124],[-39,251],[215,-24],[72,127],[-130,402],[-507,30],[-134,-214],[90,-328],[-222,55],[-231,-246],[-298,-68],[-315,421],[-195,144],[431,-187],[298,151],[281,497],[-41,345],[-176,131],[-104,351],[-337,-42],[-33,-139],[-320,-228],[-294,-128],[-19,-133],[-236,51],[-92,-184],[266,-79],[332,166],[191,-192],[-229,-345],[-401,31],[-209,-121],[-493,-424],[-147,-19],[-421,-591],[-348,-170],[-276,-343],[-93,-6],[-335,301],[-267,-36],[-330,336],[-483,132],[-637,533],[-413,210],[-491,-122],[-572,366],[-303,36],[-304,-174],[106,-232],[-233,-116],[-177,206],[-188,-72],[39,195],[-356,433],[-567,333]],[[72966,14216],[-162,-96],[-175,151],[337,-55]],[[70548,15388],[-327,-190],[-188,49],[51,344],[353,-65],[111,-138]],[[70247,14810],[-202,141],[-336,-39],[182,196],[196,2],[160,-300]],[[87812,45012],[-260,-269],[-387,6],[-150,-319]],[[87015,44430],[-495,139]],[[86520,44569],[-280,-158]],[[86240,44411],[-274,191]],[[85945,44685],[-77,-201]],[[85868,44484],[-115,95]],[[85618,44715],[-168,-317]],[[85450,44398],[-165,15]],[[85285,44413],[-201,-250]],[[85084,44163],[-122,47],[-311,-268]],[[84651,43942],[-74,64]],[[84518,43961],[118,-424]],[[84636,43537],[143,-126]],[[84779,43411],[-132,-414]],[[84647,42997],[50,-41]],[[84635,42832],[-237,-22]],[[84288,42831],[-37,-151]],[[84251,42680],[-118,0]],[[84133,42680],[-95,256]],[[83979,42936],[-349,-236]],[[83630,42700],[-117,-300]],[[83537,42358],[-235,-311]],[[83184,42048],[-129,223]],[[83055,42271],[-11,470]],[[83044,42741],[-372,298]],[[82672,43039],[-125,-24]],[[82547,43015],[-75,301]],[[82472,43316],[-559,312]],[[81913,43628],[-260,-125]],[[81653,43503],[-404,33]],[[81249,43536],[-338,372]],[[80911,43908],[-168,-108]],[[80743,43800],[-129,70]],[[80614,43870],[-380,-184],[-593,-59]],[[79641,43627],[-249,177]],[[79392,43804],[-184,-4]],[[79208,43800],[-251,-353]],[[78957,43447],[-195,-41],[-469,-383]],[[78293,43023],[-104,-332]],[[78189,42691],[-161,-125]],[[60795,42566],[1,8723]],[[60796,51289],[-6497,-1]],[[54299,51288],[5,27459]],[[54304,78747],[378,-411],[320,-187],[468,-92],[193,41],[545,-318],[342,-102],[104,-250],[154,-89],[-6,-391],[179,-453],[148,-131],[370,-105],[368,-398],[630,-270],[144,-243],[460,16],[363,91],[453,232],[509,415],[127,211],[144,825],[9,291],[231,372],[38,195],[265,323],[199,569],[-23,255],[318,969],[-129,458],[78,133],[55,621],[315,1333],[113,107],[67,459],[-158,426],[-140,1075],[165,711],[-6,409],[-283,519],[119,1019],[373,878],[-231,734],[102,315],[225,161],[138,505],[178,181],[-382,286],[-255,-116],[473,1482],[151,274],[106,-435],[181,189],[-152,272],[385,1676],[-8,418],[89,299],[-53,503],[390,138],[167,217],[104,343],[201,60],[169,-178],[-199,-276],[-37,-321],[124,233],[124,-197],[220,-55],[151,-329],[16,-594],[163,-299],[-91,-276],[71,-463],[-26,-546],[275,-317],[257,84],[200,-252],[-231,-489],[-1,-518],[221,-16],[202,-186],[-3,-292],[360,-303],[-175,-542],[-14,-292],[395,174],[-76,-321],[75,-1138],[140,-236],[-143,-965],[196,-618],[127,-137],[140,-925],[159,-316],[141,-117],[314,2],[362,412],[-1,228],[259,-138],[261,145],[120,269],[227,-275],[-20,-291],[138,7],[-70,-340],[161,-266],[176,63],[18,-140],[276,-60],[100,-380],[147,-146],[356,-123],[203,-342],[150,12],[-255,-546],[81,-346],[184,-53],[-153,-116],[-97,-417],[178,-321],[-22,-222],[121,-335],[-25,-431],[123,-118],[136,-363],[-80,-191],[85,-366],[-132,-205],[-17,-351],[126,-60],[246,-602],[193,-146],[241,-521],[144,132],[235,-74],[-148,-467],[130,-213],[48,-323],[220,-444],[-10,-336],[175,-401],[-126,-440],[62,-162],[-40,-352],[-202,-417],[18,-362],[253,-359],[122,-306],[322,-153],[1,-301],[-142,-668],[392,-620],[486,-340],[194,17],[248,-345],[163,-15],[138,270],[38,-236],[188,-364],[616,-11],[97,90],[347,-807],[-62,-152],[183,-300],[206,37],[-31,317],[154,-9],[90,-410],[275,-223],[191,133],[69,-173],[311,-129],[-54,-173],[264,-341],[245,71],[-30,229],[240,-21],[43,-334],[123,31],[73,-323],[142,1],[221,-204],[-5,-229],[198,-299],[-158,17],[-122,303],[-300,-471],[149,-380],[238,-216],[5,-247],[402,-63],[-32,-274],[312,-24],[123,-421],[-64,-155],[245,-217],[41,-347],[-59,-332],[229,40],[-48,-122],[164,-125],[65,-478],[-106,-9],[89,-269],[-14,-253],[299,-1005],[119,-242],[331,-79],[510,-811],[-290,925],[93,457],[189,172],[235,-388],[56,-293],[267,-107],[512,-560],[131,90],[-127,338],[50,367],[138,-32],[53,-324],[36,269],[154,-806],[99,276],[-13,-319],[124,-132],[-185,-1292],[155,-311],[-116,-195],[225,-515],[-177,-86],[191,-123],[321,-57],[30,-189],[177,-100],[110,-419],[328,-172],[254,-409],[300,-207],[-14,149],[227,-217],[-147,381],[334,-105],[14,-332],[249,-58],[371,-1053],[196,-333],[693,-550],[39,-449],[108,-321],[210,-205],[-39,-92],[232,-251],[229,64],[187,-133],[-39,-364],[-99,-192],[229,149],[-176,-357],[7,-369],[308,-424],[-9,-488],[120,508],[104,-323],[157,2],[-251,-847],[2,-449],[92,0],[-61,-402],[129,-827],[-230,-534],[215,-259],[-169,-103],[-62,-250],[69,-341],[186,-142],[72,-328],[113,31],[140,-319],[38,-364],[252,-103],[-97,-241],[178,-983]],[[87963,47110],[-190,-685],[-81,83],[-50,423],[87,295],[234,-116]],[[87794,48291],[-106,-509],[38,-379],[-155,386],[-9,407],[232,95]],[[87744,46173],[-43,-484],[-41,262],[84,222]],[[86672,52516],[219,664],[-12,284],[-116,78],[363,399],[135,255],[8,243],[-232,282],[315,343],[13,-571],[195,-328],[-547,-1608],[-65,-675],[-136,67],[-140,567]],[[87229,48136],[-91,-51],[-196,520],[119,309],[168,-778]],[[83132,57788],[-202,-117],[-378,513],[-147,390],[482,-68],[51,-283],[194,-435]],[[81498,62042],[-168,-158],[-9,415],[177,-257]],[[80132,62510],[-73,-293],[-74,189],[85,341],[62,-237]],[[78253,67856],[-214,-102],[-74,123],[58,373],[77,-268],[153,-126]],[[78049,68512],[-187,-273],[55,263],[132,10]],[[73536,71284],[-81,-198],[-145,153],[226,45]],[[73125,72324],[-271,-21],[44,147],[227,-126]],[[72137,73699],[-28,199],[161,-51],[-50,-250],[179,-293],[-75,-198],[-216,22],[-71,326],[-261,348],[361,-103]],[[64696,99573],[-203,-153],[-212,40],[82,145],[333,-32]],[[63707,97259],[-142,-254],[-205,204],[178,214],[169,-164]],[[63601,99901],[-108,-81],[-245,76],[196,102],[157,-97]],[[63563,95707],[-216,-187],[-148,249],[204,262],[160,-324]],[[63379,97452],[-63,-218],[-169,198],[209,155],[23,-135]],[[58008,78788],[-251,-69],[-64,232],[-198,-151],[-80,-431],[-451,-164],[-171,283],[332,497],[349,48],[179,161],[278,-174],[77,-232]],[[57490,77145],[-170,38],[217,300],[181,-331],[-228,-7]],[[34817,34757],[1,16526],[25978,6]],[[60796,51289],[7,-23315],[-85,120]],[[60718,28094],[22,-10114],[-17,-1725]],[[60723,16255],[-657,-16],[-576,414],[-597,1128],[-276,130],[-501,832],[74,180],[-120,338],[-153,185],[374,343],[18,558],[-147,548],[-563,1207],[-316,439],[-358,400],[-710,573],[-262,106],[-284,-67],[-237,-288],[-791,-44],[-132,96],[68,203],[361,253],[102,219],[216,124],[166,924],[-90,509],[151,134],[-9,168],[-210,239],[-217,405],[-171,158],[-92,481],[-166,132],[42,129],[-191,255],[-164,-359],[12,-267],[-194,-230],[-91,-492],[69,-53],[-396,-1272],[74,-177],[-263,-156],[-464,204],[-192,-191],[-209,-2],[-138,-212],[-374,42],[-124,-172],[-207,0],[-6,268],[206,177],[-23,291],[180,395],[173,-78],[397,75],[213,-174],[160,126],[131,850],[-72,655],[51,482],[-108,264],[123,-6],[132,274],[-88,113],[224,240],[-65,131],[734,955],[-149,440],[23,213],[-152,166],[92,201],[435,238],[-77,231],[-145,86],[-110,663],[94,58],[-231,180],[-189,814],[14,-810],[114,-158],[-50,-730],[-272,143],[-138,-248],[-335,-337],[-18,-226],[-129,-182],[-30,-426],[-100,-94],[-219,-550],[-480,-185],[-700,-448],[-661,-553],[-84,-327],[-420,-655],[-83,-394],[-77,185],[-269,-143],[-153,-306],[-33,-346],[-131,-164],[233,11],[136,140],[105,-648],[-460,347],[-172,-12],[-58,-232],[-134,112],[-324,471],[-269,185],[-212,374],[-310,-106],[186,448],[57,-188],[391,-391],[235,36],[-228,330],[-35,-255],[-93,952],[-221,368],[60,352],[-194,412],[-307,357],[-455,374],[72,231],[-133,633],[-311,276],[95,172],[-232,104],[77,-309],[-389,292],[-178,-91],[-184,428],[-38,-173],[199,-175],[-65,-148],[-147,136],[-65,317],[-135,-36],[46,329],[-279,101],[169,198],[-169,340],[200,-4],[150,-191],[148,281],[-52,346],[-224,305],[-217,38],[-154,-144],[-309,-106],[39,414],[182,31],[-280,449],[-308,91],[-27,287],[-162,49],[-84,-240],[-174,202],[-174,-172],[116,-55],[-370,-48],[-297,58],[-108,139],[-740,516],[-327,44],[-702,-289],[-153,19],[-276,318],[-681,574],[-1112,662],[-208,83],[-265,-215],[-477,-197],[-1150,93],[-266,-9],[-2380,-283],[-112,-38]],[[54593,22689],[-203,-183],[-515,156],[-414,-182],[-20,-279],[-307,-191],[-195,222],[-349,71],[-170,-174],[-600,51],[-275,-83],[-133,201],[-182,73],[-105,215],[118,371],[791,218],[253,14],[528,261],[694,39],[-139,-193],[160,-63],[-143,-208],[439,5],[-57,-346],[212,140],[105,218],[315,-67],[192,-286]],[[50414,24979],[-250,282],[39,68],[211,-350]],[[46826,28847],[-218,-147],[54,237],[164,-90]],[[44934,33173],[-159,-219],[-130,84],[289,135]],[[34817,83584],[0,-48827]],[[34817,34757],[-1097,-653],[-391,-196],[-2139,-805],[-1415,-151],[-543,71],[-474,150],[-545,-169],[-325,-221],[-583,-530],[-469,-171],[-461,-312],[-165,-39],[-459,-419],[-1102,-313],[-327,-335],[-115,-233],[-223,-727],[-48,-384],[-436,-405],[-22,-282],[-498,-421],[-353,128],[-183,-244],[-268,-106],[-4,205],[-300,259],[-101,-132],[-438,71],[-416,-112],[-22,-131],[-449,139],[-188,-253],[-304,-17],[-111,301],[-183,214],[-457,-232],[-527,236],[-400,36],[-1565,-221],[-99,15],[-339,-248],[-445,114],[-227,-64],[-182,91],[-212,-159],[-277,-16],[-474,-439],[-203,-446],[-2,-358],[-189,111],[-72,-326],[-200,97],[-11,-178],[-702,180],[-101,-151],[-344,-123],[57,-184],[-128,-139],[-439,-176],[-258,-309],[6,-270],[-150,73],[-266,-152],[-36,-230],[-186,108],[-564,-171],[375,-184],[-265,-45],[-431,208],[-153,-220],[-312,112],[-265,202],[223,-3],[-23,156],[-186,-7],[-93,-217],[-284,78],[-97,-129],[-419,123],[-77,-131],[-331,144],[-299,-134],[-322,130],[-477,396],[-561,109],[-119,353],[-600,697],[-546,403],[-336,103],[-194,-47],[-85,-155],[-216,340],[-93,467],[-33,681],[52,203],[-54,279],[115,186],[-53,300],[259,-270],[383,-90],[276,135],[316,449],[233,518],[14,484],[-172,1284],[71,140],[112,-433],[74,42],[-131,399],[175,-89],[-62,238],[69,363],[-105,457],[157,257],[-97,1244],[-95,325],[-317,713],[-213,379],[-277,885],[-267,431],[-248,892],[-37,22],[-65,793],[-159,547],[61,401],[-54,660],[86,553],[-272,1094],[-508,695],[-88,773],[-136,340],[-456,759],[-322,355],[-150,757],[126,417],[-128,592],[-301,791],[-395,877],[-430,748],[-623,788],[7,168],[-311,554],[227,-115],[83,509],[69,-910],[120,339],[-50,567],[310,-1007],[66,245],[87,-653],[115,120],[25,-454],[359,25],[162,297],[-4,503],[-180,242],[-237,101],[-146,338],[-88,11],[-46,438],[-313,644],[38,288],[171,355],[31,-303],[121,-38],[55,-272],[250,-230],[86,-247],[-134,-483],[54,-435],[141,-37],[224,500],[172,-893],[225,-360],[349,447],[-107,385],[144,103],[-131,468],[153,4],[4,275],[-133,100],[-436,682],[-405,1292],[-227,204],[-100,235],[0,467],[-105,9],[12,327],[-468,761],[-36,756],[115,123],[-46,403],[104,419],[312,732],[301,344],[89,675],[-51,480],[90,139],[30,368],[-154,581],[-183,113],[-36,402],[361,793],[243,892],[197,429],[306,190],[-59,-500],[-125,-570],[212,-439],[-122,-321],[47,-355],[300,303],[126,-240],[137,136],[-5,319],[154,277],[-41,285],[118,-50],[291,796],[12,188],[553,405],[517,134],[222,206],[116,-17],[473,321],[220,401],[461,273],[188,502],[585,322],[35,390],[111,-135],[404,163],[336,228],[-40,155],[350,148],[153,326],[122,8],[-147,-448],[277,-130],[135,195],[226,99],[590,-354],[882,239],[233,324],[604,564],[97,-54],[661,133],[189,128],[165,-132],[321,163],[296,433],[75,265],[229,222],[149,-162],[108,180],[536,-175],[210,-191],[307,122],[147,196],[203,0],[714,162],[1701,851],[286,239],[648,874],[212,418],[304,799],[-72,327],[258,28],[116,254],[-133,98],[190,243],[187,81],[490,455],[183,300],[337,255],[5,356],[-264,120],[-163,-62],[82,291],[-88,791],[-59,119],[61,862],[235,344],[-62,74],[469,533],[308,-84],[-169,373],[98,217],[126,-112],[435,163],[-209,178],[80,286],[272,280],[45,288],[328,-148],[-133,-33],[-132,-373],[209,-322],[164,-59],[-52,-211],[118,-63],[-17,-346],[185,-132],[346,-902],[-4,-104],[263,-297],[144,-481],[-35,518],[177,645],[-136,437],[140,98],[201,-200],[105,-243],[267,-173],[-170,272],[-82,331],[336,397],[0,143],[-336,-272],[-170,369],[-216,306],[-249,60],[243,304],[-193,29],[-114,216],[240,-138],[145,123],[-316,160],[8,116],[339,-164],[-79,232],[190,-46],[-194,238],[-153,328],[372,61],[187,-183],[-160,-127],[345,-463],[-35,345],[216,-219],[-75,218],[110,115],[389,-130],[48,-277],[408,-117],[44,-285],[81,137],[-131,437],[134,-190],[641,61],[-112,132],[-648,18],[9,491],[78,-27],[21,329],[157,-325],[164,178],[-28,336],[271,541],[0,212],[-156,-110],[-252,-583],[-158,495],[-56,-196],[-105,595],[247,154],[-170,11],[246,425],[240,-165],[10,259],[94,-121],[-22,338],[83,315],[307,-133],[371,-501],[-3,-212],[155,237],[720,-677],[-722,740],[2,301],[-125,183],[-240,-237],[-95,158],[124,206],[157,-32],[118,178],[-195,48],[-205,-284],[-90,302],[165,149],[259,-19],[-10,351],[217,-148],[82,-314],[274,151],[98,-184],[234,41],[-169,457],[-328,63],[158,339],[-166,-34],[-128,261],[134,309],[107,-71],[57,203],[-182,-82],[284,278],[162,29],[42,-278],[127,355],[216,39],[75,349],[-84,365],[140,48],[135,-245],[-103,-23],[55,-476],[236,158],[113,-264],[-42,-142],[230,-169],[-35,308],[262,1],[-48,364],[149,175],[-76,282],[173,66],[79,248],[-141,204],[6,288],[-208,148],[160,14],[294,-195],[-155,-231],[140,-26],[-61,-263],[65,-202],[314,135],[-123,149],[65,258],[502,277],[-252,-375],[260,-163],[69,-279],[129,352],[71,-58],[149,246],[-145,148],[119,78],[335,-38],[-216,159],[-135,403],[476,146],[389,-699],[104,227],[276,-166],[63,159],[179,-106],[114,-413],[119,-4],[286,-302],[201,-328],[190,-526],[171,-54],[50,-241],[88,87],[165,-274],[286,-163],[-19,-384],[-116,-93],[-101,-582],[-23,-545],[-90,-99],[101,-214],[-74,-329],[134,150],[-10,634],[40,76],[281,-357],[89,-447],[3,408],[-174,337],[-57,321],[74,262],[186,225],[104,-409],[-8,527],[195,-340],[-58,350],[194,-383],[-96,361],[-159,246],[340,106],[278,-81],[236,-188],[462,-55]],[[33086,82826],[-164,-46],[-3,337],[167,-291]],[[29659,86457],[-228,-47],[19,118],[209,-71]],[[26653,83029],[-75,-145],[-112,229],[187,-84]],[[26621,84699],[-4,-324],[-230,-103],[22,432],[212,-5]],[[25406,82080],[-191,-136],[50,181],[-278,77],[238,319],[-33,-200],[214,-241]],[[24987,82361],[-256,-27],[212,175],[44,-148]],[[7936,67037],[-73,-132],[-194,33],[267,99]],[[5534,66578],[-122,-378],[-216,-81],[1,242],[242,410],[95,-193]],[[684,50975],[-45,-169],[-174,408],[-189,265],[-257,836],[-3,339],[204,80],[-29,-181],[242,-927],[251,-651]],[[531,54820],[-103,-598],[20,414],[83,184]],[[448,54009],[-113,-619],[88,747],[25,-128]],[[76997,9344],[-285,-168],[-88,192],[-485,-89],[-221,159],[212,184],[401,-4],[136,145],[330,-419]],[[68926,7523],[-250,48],[-59,318],[216,225],[-55,541],[524,-251],[111,44],[302,-249],[411,189],[28,-249],[271,-106],[140,95],[75,-161],[397,-105],[-71,-86],[288,-219],[103,39],[600,-342],[467,-38],[323,91],[117,-300],[-19,270],[323,208],[119,-12],[300,-369],[138,-300],[338,-357],[-242,453],[-223,187],[-26,218],[-157,2],[-89,238],[374,78],[133,137],[297,-149],[198,227],[208,40],[112,-184],[203,69],[387,460],[178,-160],[264,-20],[160,267],[-19,148],[304,-85],[133,-178],[178,-45],[219,-412],[-154,-590],[185,-201],[-123,-48],[-70,-608],[154,-394],[-121,-539],[128,-320],[-84,-354],[105,-193],[-77,-177],[129,-40],[-107,-251],[-122,71],[100,296],[-166,208],[-138,-16],[186,208],[-173,13],[4,-156],[-206,-175],[30,-162],[-152,-208],[-7,-587],[-133,-325],[-160,-4],[190,-334],[-256,-594],[-380,-81],[-137,95],[-25,255],[-323,-5],[182,-186],[-74,-186],[128,-216],[-221,-136],[85,306],[-122,54],[-511,532],[123,-260],[144,-50],[84,-238],[-102,-422],[-63,148],[-83,-331],[-9,-423],[-162,-45],[-184,350],[-45,-180],[-168,103],[131,413],[-205,-339],[320,-338],[-185,-412],[-210,-72],[81,-250],[-163,-73],[94,-122],[-204,-125],[-90,125],[-173,-97],[-236,262],[-495,67],[-168,-71],[-160,172],[-230,-208],[-171,-40],[-73,476],[-164,75],[141,151],[512,-174],[-118,285],[-123,-167],[-100,148],[-134,-110],[-187,360],[20,-258],[-185,-43],[-344,769],[-385,295],[-148,219],[-151,630],[-224,102],[90,146],[-112,143],[-95,914],[219,-328],[440,-332],[63,190],[-133,14],[-352,547],[-206,-124],[88,309],[-129,510],[-288,239],[-326,543],[-293,645],[10,147],[-231,465],[1,571],[153,-68]],[[76702,3805],[-236,70],[134,73],[102,-143]],[[76677,10002],[-268,-6],[-191,-184],[-165,71],[-84,419],[-238,309],[-37,266],[-266,48],[187,156],[53,182],[200,129],[469,-645],[247,-38],[-8,-336],[101,-371]],[[76491,9191],[-108,-298],[-222,170],[330,128]],[[76319,2913],[-190,-38],[26,-172],[-172,-61],[114,189],[-123,46],[125,263],[220,-227]],[[75978,1248],[-248,90],[-64,179],[-146,-329],[-248,301],[123,128],[-198,16],[-68,240],[243,144],[-28,-206],[333,14],[-150,378],[363,84],[62,-291],[-158,-165],[184,-583]],[[74227,623],[-122,-174],[-107,246],[180,-134],[230,559],[68,-84],[133,345],[-223,28],[198,275],[142,-464],[-240,-211],[129,-197],[-189,-419],[-199,230]],[[69304,8800],[301,-268],[-377,-75],[-48,179],[124,164]],[[69393,9369],[-159,-167],[-134,119],[96,146],[197,-98]],[[69009,9395],[-36,-476],[-144,207],[180,269]],[[67592,10800],[-71,-321],[-381,-296],[-118,85],[36,358],[-126,227],[73,238],[-50,343],[170,136],[50,256],[355,-260],[-10,-643],[72,-123]],[[54299,51288],[-19483,-5],[1,32301]],[[34817,83584],[406,-313],[-42,-187],[100,-297],[45,250],[-17,664],[550,-296],[263,-485],[-87,-208],[262,108],[-138,418],[-262,568],[256,-210],[30,92],[369,-41],[22,102],[-304,172],[-198,365],[241,73],[172,215],[-221,-121],[-310,82],[-319,386],[-26,236],[91,297],[223,316],[-72,230],[191,-104],[334,204],[-12,391],[171,260],[71,788],[151,226],[27,-215],[214,-55],[288,221],[309,440],[-260,371],[-104,40],[26,554],[142,183],[116,-110],[197,170],[30,638],[235,91],[236,-304],[259,-23],[39,102],[-350,239],[159,734],[316,-162],[20,-315],[417,-244],[-227,301],[119,199],[-218,147],[173,224],[300,-90],[-9,623],[275,-65],[139,-170],[163,537],[56,-439],[323,-262],[656,45],[225,156],[131,-170],[282,-88],[335,316],[279,-12],[78,-109],[114,261],[405,177],[16,765],[-90,268],[-206,139],[104,213],[-116,367],[-305,119],[-248,-40],[-271,-246],[-173,168],[55,145],[-253,94],[51,166],[-230,145],[-97,235],[146,88],[171,-208],[69,374],[261,-252],[110,-585],[145,144],[-63,396],[-144,303],[110,-23],[210,-425],[-40,294],[160,102],[126,-462],[79,256],[408,-578],[101,-306],[139,-11],[195,333],[136,-73],[69,285],[345,-550],[158,-527],[222,-83],[197,108],[-49,-221],[140,52],[159,-145],[329,-119],[428,317],[285,-107],[-254,-196],[184,-260],[266,211],[209,-123],[145,-382],[-56,-250],[184,234],[-16,144],[534,-253],[243,66],[309,290],[237,-528],[248,-80],[183,-305],[457,112],[214,407],[107,-85],[335,39],[181,178],[385,160],[-393,-535],[153,-327],[348,379],[168,-4],[7,-342],[214,84],[-185,-373],[99,-340],[92,163],[205,-118],[219,41],[223,578],[-56,180],[-235,-51],[-132,146],[216,284],[157,17],[163,292],[252,-95],[147,-612],[105,-196],[257,101],[-146,129],[181,91],[265,-252],[160,-289],[-501,-599],[-123,-234],[18,-209],[-176,41],[-20,-363],[-127,217],[-154,-294],[318,-324],[-98,-141],[-271,68],[242,-235],[-77,-277],[-112,-45],[-296,-453],[-32,220],[130,67],[-118,560],[-109,-389],[-177,-229],[-146,115],[24,252],[-175,-307],[-37,-243],[-76,276],[-105,-232],[-97,76],[-84,-274],[111,-302],[-155,77],[21,-353],[-74,-84],[172,-454],[365,266],[-308,-866],[-68,-107],[-67,-512],[-189,-188],[-268,-487],[-104,-70],[-180,-401],[10,-266],[-344,-212],[62,-428],[147,-299],[219,-201],[168,-21],[702,-682],[559,-375],[66,-347],[154,-226],[153,-37],[317,-337],[185,203],[174,-70],[-90,-237],[101,-448],[397,95],[141,141],[152,-207],[447,-262],[256,-351],[773,-288],[286,-553],[302,-354]],[[52366,80990],[-144,-183],[-133,358],[28,371],[196,-207],[53,-339]],[[52058,85659],[-35,-322],[-94,-100],[-323,153],[-228,-111],[-460,290],[-245,-49],[256,261],[-75,427],[3,422],[187,-28],[78,162],[230,4],[-138,259],[334,123],[-103,-254],[118,-91],[-37,-189],[258,-20],[7,283],[181,-178],[-144,-309],[-140,-3],[-67,-253],[98,-101],[-188,-99],[-29,-288],[343,-121],[213,132]],[[51930,81524],[-162,-86],[81,322],[81,-236]],[[51782,81240],[-226,-208],[7,324],[219,-116]],[[51630,94772],[-178,-640],[-317,-515],[-137,-67],[235,361],[86,333],[140,51],[171,477]],[[51307,81621],[-59,-262],[-206,6],[66,327],[199,-71]],[[51144,86803],[-157,73],[133,125],[24,-198]],[[50787,93159],[-250,-228],[8,260],[242,-32]],[[50289,91793],[292,228],[77,-50],[-259,-196],[-110,18]],[[50624,86911],[-104,-39],[-13,-297],[-307,99],[15,246],[132,-50],[17,206],[157,11],[103,-176]],[[50417,87723],[-139,-45],[-32,278],[171,-233]],[[49398,92133],[321,385],[117,5],[-303,-471],[-505,-305],[37,315],[333,71]],[[49469,83597],[-176,-83],[84,200],[92,-117]],[[47652,91686],[-130,-103],[-46,242],[176,-139]],[[44543,93369],[-238,-92],[180,229],[58,-137]],[[44518,93065],[-286,-22],[130,114],[156,-92]],[[42581,94892],[34,-632],[-32,-439],[-256,578],[254,493]],[[37851,93799],[-84,326],[82,247],[213,-308],[225,-143],[-77,-222],[191,179],[102,-459],[261,-129],[-259,445],[311,91],[106,131],[291,-170],[20,144],[232,198],[86,-247],[35,287],[159,135],[224,-316],[119,94],[62,-426],[171,-115],[-170,-133],[11,-320],[-218,79],[-192,-462],[-430,-280],[-287,-302],[-188,249],[-381,169],[-15,101],[-405,310],[3,264],[-134,178],[-64,405]],[[37440,92785],[-37,570],[-103,99],[377,432],[169,-266],[-52,-238],[190,-198],[10,-265],[374,-263],[-81,-204],[-218,-10],[-413,173],[-536,-138],[-89,61],[114,373],[295,-126]],[[78881,24112],[-313,18]],[[78436,23928],[-9,-517]],[[78302,23446],[54,-337],[-35,-370]],[[78321,22739],[-97,-280]],[[78224,22459],[-302,196]],[[77922,22655],[-49,389]],[[77873,23044],[-67,-121]],[[77806,22923],[-140,166]],[[77666,23089],[-61,604]],[[77605,23693],[98,540]],[[78380,24771],[182,-305]],[[78582,24495],[126,-157]],[[78708,24338],[275,-132]]]}
